[
    {
        "OBJECT_NAME": "ONEWEB-0140",
        "OBJECT_ID": "2020-100AE",
        "EPOCH": "2025-12-06T20:26:25.226304",
        "MEAN_MOTION": 13.12442708,
        "ECCENTRICITY": 0.0001757,
        "INCLINATION": 87.8946,
        "RA_OF_ASC_NODE": 28.8445,
        "ARG_OF_PERICENTER": 93.0431,
        "MEAN_ANOMALY": 267.0898,
        "EPHEMERIS_TYPE": 0,
        "CLASSIFICATION_TYPE": "U",
        "NORAD_CAT_ID": 47286,
        "ELEMENT_SET_NO": 999,
        "REV_AT_EPOCH": 23946,
        "BSTAR": -0.00074742925,
        "MEAN_MOTION_DOT": -2.56e-06,
        "MEAN_MOTION_DDOT": 0
    },
    {
        "OBJECT_NAME": "ONEWEB-0141",
        "OBJECT_ID": "2020-100AF",
        "EPOCH": "2025-12-06T21:31:37.120224",
        "MEAN_MOTION": 13.12445589,
        "ECCENTRICITY": 0.00014657,
        "INCLINATION": 87.8939,
        "RA_OF_ASC_NODE": 28.8449,
        "ARG_OF_PERICENTER": 105.1938,
        "MEAN_ANOMALY": 254.9353,
        "EPHEMERIS_TYPE": 0,
        "CLASSIFICATION_TYPE": "U",
        "NORAD_CAT_ID": 47287,
        "ELEMENT_SET_NO": 999,
        "REV_AT_EPOCH": 23945,
        "BSTAR": 0.001675895,
        "MEAN_MOTION_DOT": 6.16e-06,
        "MEAN_MOTION_DDOT": 0
    },
    {
        "OBJECT_NAME": "ONEWEB-0142",
        "OBJECT_ID": "2020-100AG",
        "EPOCH": "2025-12-06T21:15:36.795456",
        "MEAN_MOTION": 13.12493493,
        "ECCENTRICITY": 8.105e-05,
        "INCLINATION": 87.8859,
        "RA_OF_ASC_NODE": 28.8706,
        "ARG_OF_PERICENTER": 163.7018,
        "MEAN_ANOMALY": 196.4136,
        "EPHEMERIS_TYPE": 0,
        "CLASSIFICATION_TYPE": "U",
        "NORAD_CAT_ID": 47288,
        "ELEMENT_SET_NO": 999,
        "REV_AT_EPOCH": 23944,
        "BSTAR": -0.005451792,
        "MEAN_MOTION_DOT": -1.95e-05,
        "MEAN_MOTION_DDOT": 0
    },
    {
        "OBJECT_NAME": "ONEWEB-0143",
        "OBJECT_ID": "2020-100AH",
        "EPOCH": "2025-12-06T21:29:28.528512",
        "MEAN_MOTION": 13.12442428,
        "ECCENTRICITY": 0.00017726,
        "INCLINATION": 87.8945,
        "RA_OF_ASC_NODE": 28.8634,
        "ARG_OF_PERICENTER": 101.4959,
        "MEAN_ANOMALY": 258.6369,
        "EPHEMERIS_TYPE": 0,
        "CLASSIFICATION_TYPE": "U",
        "NORAD_CAT_ID": 47289,
        "ELEMENT_SET_NO": 999,
        "REV_AT_EPOCH": 23942,
        "BSTAR": 0.0011327285,
        "MEAN_MOTION_DOT": 4.2e-06,
        "MEAN_MOTION_DDOT": 0
    },
    {
        "OBJECT_NAME": "ONEWEB-0144",
        "OBJECT_ID": "2020-100AJ",
        "EPOCH": "2025-12-06T20:49:47.030016",
        "MEAN_MOTION": 13.12438823,
        "ECCENTRICITY": 0.00015872,
        "INCLINATION": 87.8946,
        "RA_OF_ASC_NODE": 28.8381,
        "ARG_OF_PERICENTER": 87.1601,
        "MEAN_ANOMALY": 272.9709,
        "EPHEMERIS_TYPE": 0,
        "CLASSIFICATION_TYPE": "U",
        "NORAD_CAT_ID": 47290,
        "ELEMENT_SET_NO": 999,
        "REV_AT_EPOCH": 23934,
        "BSTAR": 0.0018174274,
        "MEAN_MOTION_DOT": 6.67e-06,
        "MEAN_MOTION_DDOT": 0
    },
    {
        "OBJECT_NAME": "ONEWEB-0145",
        "OBJECT_ID": "2020-100AK",
        "EPOCH": "2025-12-06T16:28:10.356672",
        "MEAN_MOTION": 13.1244226,
        "ECCENTRICITY": 0.00016828,
        "INCLINATION": 87.8946,
        "RA_OF_ASC_NODE": 28.9127,
        "ARG_OF_PERICENTER": 95.8168,
        "MEAN_ANOMALY": 264.3152,
        "EPHEMERIS_TYPE": 0,
        "CLASSIFICATION_TYPE": "U",
        "NORAD_CAT_ID": 47291,
        "ELEMENT_SET_NO": 999,
        "REV_AT_EPOCH": 23951,
        "BSTAR": 0.00031017499,
        "MEAN_MOTION_DOT": 1.24e-06,
        "MEAN_MOTION_DDOT": 0
    },
    {
        "OBJECT_NAME": "ONEWEB-0146",
        "OBJECT_ID": "2020-100AL",
        "EPOCH": "2025-12-06T20:03:03.777696",
        "MEAN_MOTION": 13.12443462,
        "ECCENTRICITY": 0.00020558,
        "INCLINATION": 87.8943,
        "RA_OF_ASC_NODE": 28.8694,
        "ARG_OF_PERICENTER": 102.7972,
        "MEAN_ANOMALY": 257.3386,
        "EPHEMERIS_TYPE": 0,
        "CLASSIFICATION_TYPE": "U",
        "NORAD_CAT_ID": 47292,
        "ELEMENT_SET_NO": 999,
        "REV_AT_EPOCH": 23944,
        "BSTAR": 0.00077800505,
        "MEAN_MOTION_DOT": 2.93e-06,
        "MEAN_MOTION_DDOT": 0
    },
    {
        "OBJECT_NAME": "ONEWEB-0147",
        "OBJECT_ID": "2020-100AM",
        "EPOCH": "2025-12-06T21:03:46.847520",
        "MEAN_MOTION": 13.12445535,
        "ECCENTRICITY": 0.00018564,
        "INCLINATION": 87.895,
        "RA_OF_ASC_NODE": 28.8391,
        "ARG_OF_PERICENTER": 89.5134,
        "MEAN_ANOMALY": 270.6208,
        "EPHEMERIS_TYPE": 0,
        "CLASSIFICATION_TYPE": "U",
        "NORAD_CAT_ID": 47293,
        "ELEMENT_SET_NO": 999,
        "REV_AT_EPOCH": 23934,
        "BSTAR": 0.00019455432,
        "MEAN_MOTION_DOT": 8.3e-07,
        "MEAN_MOTION_DDOT": 0
    },
    {
        "OBJECT_NAME": "ONEWEB-0115",
        "OBJECT_ID": "2021-025A",
        "EPOCH": "2025-12-06T14:22:12.894240",
        "MEAN_MOTION": 13.1347027,
        "ECCENTRICITY": 0.00017812,
        "INCLINATION": 87.8986,
        "RA_OF_ASC_NODE": 358.494,
        "ARG_OF_PERICENTER": 93.6373,
        "MEAN_ANOMALY": 266.496,
        "EPHEMERIS_TYPE": 0,
        "CLASSIFICATION_TYPE": "U",
        "NORAD_CAT_ID": 48042,
        "ELEMENT_SET_NO": 999,
        "REV_AT_EPOCH": 22831,
        "BSTAR": 0.00032679019,
        "MEAN_MOTION_DOT": 1.32e-06,
        "MEAN_MOTION_DDOT": 0
    },
    {
        "OBJECT_NAME": "ONEWEB-0152",
        "OBJECT_ID": "2021-025B",
        "EPOCH": "2025-12-06T14:41:43.018944",
        "MEAN_MOTION": 13.13469642,
        "ECCENTRICITY": 0.00018644,
        "INCLINATION": 87.8978,
        "RA_OF_ASC_NODE": 358.4987,
        "ARG_OF_PERICENTER": 94.1484,
        "MEAN_ANOMALY": 265.9858,
        "EPHEMERIS_TYPE": 0,
        "CLASSIFICATION_TYPE": "U",
        "NORAD_CAT_ID": 48043,
        "ELEMENT_SET_NO": 999,
        "REV_AT_EPOCH": 22827,
        "BSTAR": -0.00070417135,
        "MEAN_MOTION_DOT": -2.44e-06,
        "MEAN_MOTION_DDOT": 0
    },
    {
        "OBJECT_NAME": "ONEWEB-0153",
        "OBJECT_ID": "2021-025C",
        "EPOCH": "2025-12-06T17:49:25.561344",
        "MEAN_MOTION": 13.1346994,
        "ECCENTRICITY": 0.00017071,
        "INCLINATION": 87.8983,
        "RA_OF_ASC_NODE": 358.478,
        "ARG_OF_PERICENTER": 92.2245,
        "MEAN_ANOMALY": 267.908,
        "EPHEMERIS_TYPE": 0,
        "CLASSIFICATION_TYPE": "U",
        "NORAD_CAT_ID": 48044,
        "ELEMENT_SET_NO": 999,
        "REV_AT_EPOCH": 22828,
        "BSTAR": 0.00061210183,
        "MEAN_MOTION_DOT": 2.36e-06,
        "MEAN_MOTION_DDOT": 0
    },
    {
        "OBJECT_NAME": "ONEWEB-0154",
        "OBJECT_ID": "2021-025D",
        "EPOCH": "2025-12-06T19:34:14.531808",
        "MEAN_MOTION": 13.13470808,
        "ECCENTRICITY": 0.0001803,
        "INCLINATION": 87.8985,
        "RA_OF_ASC_NODE": 358.46,
        "ARG_OF_PERICENTER": 90.3094,
        "MEAN_ANOMALY": 269.8241,
        "EPHEMERIS_TYPE": 0,
        "CLASSIFICATION_TYPE": "U",
        "NORAD_CAT_ID": 48045,
        "ELEMENT_SET_NO": 999,
        "REV_AT_EPOCH": 22825,
        "BSTAR": 0.00096430109,
        "MEAN_MOTION_DOT": 3.65e-06,
        "MEAN_MOTION_DDOT": 0
    }
]