[{"norad_id":"47286","company":"ONEWEB","tle_line2":"2 47286  87.8946  28.8445 0001757  93.0431 267.0898 13.12442708239468","launch_date":"2020-12-18","type":"LEO","tle_line1":"1 47286U 20100AE  25340.85168086 -.00000256  00000+0 -74743-3 0  9998","satellite_name":"ONEWEB-0140"},{"norad_id":"47287","company":"ONEWEB","tle_line2":"2 47287  87.8939  28.8449 0001465 105.1938 254.9353 13.12445589239458","launch_date":"2020-12-18","type":"LEO","tle_line1":"1 47287U 20100AF  25340.89695741  .00000616  00000+0  16759-2 0  9996","satellite_name":"ONEWEB-0141"},{"norad_id":"47288","company":"ONEWEB","tle_line2":"2 47288  87.8859  28.8706 0000810 163.7018 196.4136 13.12493493239443","launch_date":"2020-12-18","type":"LEO","tle_line1":"1 47288U 20100AG  25340.88584254 -.00001950  00000+0 -54518-2 0  9991","satellite_name":"ONEWEB-0142"},{"norad_id":"47289","company":"ONEWEB","tle_line2":"2 47289  87.8945  28.8634 0001772 101.4959 258.6369 13.12442428239420","launch_date":"2020-12-18","type":"LEO","tle_line1":"1 47289U 20100AH  25340.89546908  .00000420  00000+0  11327-2 0  9997","satellite_name":"ONEWEB-0143"},{"norad_id":"47290","company":"ONEWEB","tle_line2":"2 47290  87.8946  28.8381 0001587  87.1601 272.9709 13.12438823239342","launch_date":"2020-12-18","type":"LEO","tle_line1":"1 47290U 20100AJ  25340.86790544  .00000667  00000+0  18174-2 0  9993","satellite_name":"ONEWEB-0144"},{"norad_id":"47291","company":"ONEWEB","tle_line2":"2 47291  87.8946  28.9127 0001682  95.8168 264.3152 13.12442260239518","launch_date":"2020-12-18","type":"LEO","tle_line1":"1 47291U 20100AK  25340.68623098  .00000124  00000+0  31017-3 0  9993","satellite_name":"ONEWEB-0145"},{"norad_id":"47292","company":"ONEWEB","tle_line2":"2 47292  87.8943  28.8694 0002055 102.7972 257.3386 13.12443462239448","launch_date":"2020-12-18","type":"LEO","tle_line1":"1 47292U 20100AL  25340.83546039  .00000293  00000+0  77801-3 0  9998","satellite_name":"ONEWEB-0146"},{"norad_id":"47293","company":"ONEWEB","tle_line2":"2 47293  87.8950  28.8391 0001856  89.5134 270.6208 13.12445535239344","launch_date":"2020-12-18","type":"LEO","tle_line1":"1 47293U 20100AM  25340.87762555  .00000083  00000+0  19455-3 0  9994","satellite_name":"ONEWEB-0147"},{"norad_id":"48042","company":"ONEWEB","tle_line2":"2 48042  87.8986 358.4940 0001781  93.6373 266.4960 13.13470270228314","launch_date":"2021-03-25","type":"LEO","tle_line1":"1 48042U 21025A   25340.59876035  .00000132  00000+0  32679-3 0  9990","satellite_name":"ONEWEB-0115"},{"norad_id":"48043","company":"ONEWEB","tle_line2":"2 48043  87.8978 358.4987 0001864  94.1484 265.9858 13.13469642228274","launch_date":"2021-03-25","type":"LEO","tle_line1":"1 48043U 21025B   25340.61230346 -.00000244  00000+0 -70417-3 0  9991","satellite_name":"ONEWEB-0152"},{"norad_id":"48044","company":"ONEWEB","tle_line2":"2 48044  87.8983 358.4780 0001707  92.2245 267.9080 13.13469940228283","launch_date":"2021-03-25","type":"LEO","tle_line1":"1 48044U 21025C   25340.74265696  .00000236  00000+0  61210-3 0  9992","satellite_name":"ONEWEB-0153"},{"norad_id":"48045","company":"ONEWEB","tle_line2":"2 48045  87.8985 358.4600 0001803  90.3094 269.8241 13.13470808228257","launch_date":"2021-03-25","type":"LEO","tle_line1":"1 48045U 21025D   25340.81544597  .00000365  00000+0  96430-3 0  9996","satellite_name":"ONEWEB-0154"}]